#aV2021 12 15  0  0  0.00000000     288 DD+AD WGS84 FIT  NGA
## 2188 259200.00000000   300.00000000 59563 0.0000000000000
+   32     1  2  3  4  5  6  7  8  9 10 11 12 13 14 15 16 17
+         18 19 20 21 22 23 24 25 26 27 28 29 30 31 32  0  0
+          0  0  0  0  0  0  0  0  0  0  0  0  0  0  0  0  0
+          0  0  0  0  0  0  0  0  0  0  0  0  0  0  0  0  0
+          0  0  0  0  0  0  0  0  0  0  0  0  0  0  0  0  0
++         2  2  2  2  2  2  2  2  2  2  2  2  2  2  2  2  2
++         2  2  2  2  2  2  2  2  2  2  2  2  2  2  2  0  0
++         0  0  0  0  0  0  0  0  0  0  0  0  0  0  0  0  0
++         0  0  0  0  0  0  0  0  0  0  0  0  0  0  0  0  0
++         0  0  0  0  0  0  0  0  0  0  0  0  0  0  0  0  0
%c cc cc ccc ccc cccc cccc cccc cccc ccccc ccccc ccccc ccccc
%c cc cc ccc ccc cccc cccc cccc cccc ccccc ccccc ccccc ccccc
%f  0.0000000  0.000000000  0.00000000000  0.000000000000000
%f  0.0000000  0.000000000  0.00000000000  0.000000000000000
%i    0    0    0    0      0      0      0      0         0
%i    0    0    0    0      0      0      0      0         0
/*      NGA, ST. LOUIS,MO.                                  
/*   EPHEMERIS COMPUTED FROM 2 DAYS OF DATA                 
/*   EPOCHA v7 SMOOTHER                                     
/*   G2139 IERS2010 SATIGS SATAPC                           
*  2021 12 15  8 55  0.00000000
P  1  10554.008054  13361.122863 -20752.029257    483.590659                    
V  1 -25530.658788   1422.251203 -11902.105634     -0.101643                    
P  2  12767.456449 -14692.422174  18778.204842   -645.716497                    
V  2  22426.511009  -1557.413246 -16981.404509     -0.012458                    
P  3  12590.414377  23281.941999  -2909.847241    -42.322770                    
V  3  -3895.237570  -1720.109301 -31653.221579     -0.123625                    
P  4   3798.314014  19071.621572  18057.066002   -198.961016                    
V  4 -12629.882986  19240.166638 -17739.211807      0.013053                    
P  5  -1297.573171 -21145.563032  15761.279507    -64.472502                    
V  5  13415.752271  15486.783803  21804.362904     -0.013002                    
P  6  24929.291890  -5873.187063   7224.182948    143.267308                    
V  6   9114.029455   1452.912854 -30498.821316      0.100601                    
P  7  23820.504120   6663.859389  10688.913991    291.026203                    
V  7 -12772.631864   2781.949900  27219.064934      0.044974                    
P  8  -4539.288152  24199.913822  -9525.665279    -48.157148                    
V  8  -7763.150179   9752.482469  28841.154817     -0.015208                    
P  9  12820.853597   8583.033883  21543.080107   -360.397017                    
V  9 -12407.528009  24610.952295  -2443.228430      0.007260                    
P 10 -17893.305193  -3416.818281 -19303.183681   -269.160355                    
V 10 -12506.502660 -21279.571141  14970.548408     -0.089777                    
P 11  15648.927951 -12170.084386  17665.146799     12.733686                    
V 11  22425.786943   1869.869289 -18586.952936     -0.033115                    
P 12  -9511.584657 -24435.370613  -4918.982663   -141.040021                    
V 12   4820.327843   4080.797692 -31093.459954     -0.055997                    
P 13  12576.768485 -22958.454939  -4121.014249    229.766855                    
V 13   5081.521813  -2623.071206  31441.050537      0.058253                    
P 14  18002.841527   3908.053609 -19156.435515    -55.462163                    
V 14  11105.169622  21679.356089  14801.400509     -0.061539                    
P 15    955.552502 -24514.091698 -10157.456247    -99.028895                    
V 15   7620.414661 -10508.089622  27484.336595      0.028356                    
P 16  -3639.173954  19077.501888  17643.741110   -440.613951                    
V 16 -12259.257128 -19622.501998  18873.911482     -0.059769                    
P 17  17829.482927  -5859.804022 -18367.855703    547.718411                    
V 17 -11271.998071  21429.909658 -17335.066127      0.053491                    
P 18 -24084.004684  -5953.122017   9619.660784    279.167417                    
V 18  12114.050700  -2511.146314  28663.962883     -0.066110                    
P 19  19149.313119 -12920.287224 -13211.830394     92.437693                    
V 19  -7472.290291  14696.939926 -25879.027726      0.049898                    
P 20   7159.669330 -14846.193897  20856.995245    517.634219                    
V 20  18087.948364  19434.006205   7360.062756     -0.001702                    
P 21    965.975325  14910.398106 -21260.729624    153.770313                    
V 21 -28493.369274   3174.948218   1476.766724      0.009688                    
P 22   8207.540824  22862.934150 -10815.378179   -441.001940                    
V 22 -11038.725878  -9034.730703 -26836.609890      0.089714                    
P 23 -19354.478943 -13912.751003 -11828.763955     21.690576                    
V 23  -6649.535847 -13559.351643  26780.681183     -0.041402                    
P 24  -6341.773819 -15057.060066 -21273.643591    274.716111                    
V 24  26161.851356  -3597.176363  -4910.991867      0.018904                    
P 25 -17183.917730 -19681.251362   5273.258880    256.013911                    
V 25  -1621.863514  -7280.747429 -30589.989129      0.057461                    
P 26 -13251.195847   8339.759468  21390.637865    165.147283                    
V 26 -15968.439108 -22266.398435   -907.539926      0.036257                    
P 27 -12158.567476  23373.302636    160.803607   -231.243865                    
V 27  -2235.804096  -1634.515184  32297.481327     -0.046839                    
P 28  14455.652474  -3915.208577 -21386.206083    442.749907                    
V 28  12670.863695  25449.468775   4024.129833     -0.077246                    
P 29  -8845.607090 -12910.677699  21410.805170   -454.219854                    
V 29  14709.089370 -22920.199338  -7784.595145     -0.050600                    
P 30  26682.716469   -166.893926    735.856624   -499.433803                    
V 30   -761.982970   3405.021598  31028.071315     -0.029120                    
P 31 -24205.740176   6946.240432   9040.636650   -155.124833                    
V 31 -11561.823381  -2116.279986 -28488.614773     -0.018517                    
P 32 -18071.555396  10133.016906 -16395.841420    -35.425887                    
V 32   7703.548989 -19776.782327 -20747.377499     -0.054203                    
EOF
